IRIDIUM 116             
1 43072U 17083C   25277.44359877  .00000168  00000+0  53034-4 0  9998
2 43072  86.3924  68.9016 0002013  84.3028 275.8397 14.34217023407516
IRIDIUM 130             
1 43073U 17083D   25277.48165473  .00000046  00000+0  94618-5 0  9999
2 43073  86.3933  69.1360 0002236  81.8043 278.3407 14.34218219407460
IRIDIUM 151             
1 43074U 17083E   25277.45628453  .00000069  00000+0  17682-4 0  9999
2 43074  86.3930  68.9482 0001946  85.6417 274.5001 14.34218199407481
IRIDIUM 134             
1 43075U 17083F   25277.49434032  .00000110  00000+0  32063-4 0  9999
2 43075  86.3927  68.9367 0002267  84.3497 275.7957 14.34218414407451
IRIDIUM 137             
1 43076U 17083G   25277.43725550  .00000090  00000+0  25182-4 0  9993
2 43076  86.3933  69.0485 0001530  81.6735 278.4634 14.34218537407514
IRIDIUM 141             
1 43077U 17083H   25277.50068134  .00000177  00000+0  56256-4 0  9992
2 43077  86.3926  68.8668 0002173  95.6821 264.4623 14.34216452407520
IRIDIUM 153             
1 43078U 17083J   25276.61564212  .00000303  00000+0  10105-3 0  9995
2 43078  86.3988  37.7073 0002388 101.3803 258.7661 14.34215013408506
IRIDIUM 131             
1 43079U 17083K   25277.48799531  .00000525  00000+0  18049-3 0  9997
2 43079  86.3945  69.0460 0001940  78.8698 281.2716 14.34218935407452
